OBJECT_NAME,OBJECT_ID,EPOCH,MEAN_MOTION,ECCENTRICITY,INCLINATION,RA_OF_ASC_NODE,ARG_OF_PERICENTER,MEAN_ANOMALY,EPHEMERIS_TYPE,CLASSIFICATION_TYPE,NORAD_CAT_ID,ELEMENT_SET_NO,REV_AT_EPOCH,BSTAR,MEAN_MOTION_DOT,MEAN_MOTION_DDOT
H-2A R/B,2006-002B,2026-06-12T07:24:22.616640,15.18001990,.00496071,98.2553,318.6970,279.3537,80.2088,0,U,28932,999,10878,.34259102E-3,.711E-4,0
RESURS-DK 1,2006-021A,2026-06-11T22:41:20.756832,15.13194127,.00067005,69.9338,353.1217,295.8467,64.2008,0,U,29228,999,10178,.12897377E-3,.2187E-4,0
CZ-4B R/B,2006-046C,2026-06-12T02:39:04.226112,15.17747003,.00311614,97.5459,207.7332,301.3105,58.5079,0,U,29507,999,7436,.16626271E-3,.3326E-4,0
CZ-2C R/B,2007-010B,2026-06-12T06:27:58.810752,14.20275156,.00593133,98.4093,271.8610,20.3891,339.9635,0,U,31114,999,99314,.50034566E-4,.68E-6,0
COSMO-SKYMED 1,2007-023A,2026-06-12T07:44:40.987104,14.97077304,.0001002,97.8846,355.1384,91.0792,269.0544,0,U,31598,999,2906,.21605125E-3,.2431E-4,0
COSMOS 2428,2007-029A,2026-06-12T06:12:37.476576,14.12929042,.00072219,70.9372,4.8260,144.5158,215.6445,0,U,31792,999,97745,-.4917973E-4,-.14E-5,0
SL-16 R/B,2007-029B,2026-06-12T06:04:31.080000,14.14852584,.00022304,70.9765,333.6006,259.9222,273.0099,0,U,31793,999,97874,.16650341E-3,.274E-5,0
KORONAS-FOTON,2009-003A,2026-06-12T06:54:27.962496,15.45625075,.00111457,82.4286,177.3699,163.6265,196.5346,0,U,33504,999,96034,.24109122E-3,.11675E-3,0
CZ-2C R/B,2011-030B,2026-06-12T07:48:44.158176,14.81460251,.00534085,97.8654,118.7995,43.5347,84.1438,0,U,37731,999,80410,.15802221E-3,.1213E-4,0
H-2A R/B,2012-025E,2026-06-12T04:57:16.925760,14.95690717,.0043984,98.4818,137.9414,5.5407,354.6289,0,U,38341,999,76234,.2987788E-3,.3319E-4,0
SHIJIAN-16 (SJ-16),2013-057A,2026-06-12T06:42:17.179200,14.92598675,.00168965,74.9737,5.9795,242.1795,117.7681,0,U,39358,999,68561,.79578252E-4,.791E-5,0
SL-4 R/B,2014-021B,2026-06-11T10:12:15.136416,15.41833581,.0091459,51.6055,238.9984,85.0382,276.1037,0,U,39679,999,67072,.21183E-3,.10157E-3,0
ALOS-2,2014-029A,2026-06-12T06:28:14.060352,14.79471669,.00016257,97.9212,260.5034,91.0171,269.1227,0,U,39766,999,65085,.93056179E-4,.644E-5,0
YAOGAN-29,2015-069A,2026-06-12T06:03:47.713248,14.83083103,.00028321,98.0035,191.8778,63.2702,296.8801,0,U,41038,999,56989,.10129344E-3,.771E-5,0
ASTRO-H (HITOMI),2016-012A,2026-06-12T03:27:45.825696,15.10488707,.0009713,30.9978,106.7554,203.5249,156.4946,0,U,41337,999,56652,.1236178E-3,.2184E-4,0
HXMT (HUIYAN),2017-034A,2026-06-12T06:24:02.599200,15.18448317,.00302229,43.0133,210.4397,114.8323,245.5673,0,U,42758,999,49691,.21171997E-3,.4248E-4,0
SAOCOM 1A,2018-076A,2026-06-12T06:36:21.847968,14.82144333,.00015765,97.8887,350.0955,79.6756,280.4635,0,U,43641,999,41537,.65687998E-4,.471E-5,0
H-2A R/B,2018-084L,2026-06-12T04:57:02.704320,15.44966144,.00239577,98.8594,41.0087,56.9693,303.3848,0,U,43682,999,42035,.45137185E-3,.21401E-3,0
SAOCOM 1B,2020-059A,2026-06-12T05:44:09.337344,14.82166322,.00014994,97.8891,349.1547,81.6949,278.4435,0,U,46265,999,31275,.10134771E-4,.28E-6,0
CSS (TIANHE),2021-035A,2026-06-11T23:39:31.552704,15.60574522,.00081426,41.4694,353.6513,34.9117,325.2255,0,U,48274,999,29235,.16312716E-3,.13571E-3,0
CZ-2C R/B,2022-058K,2026-06-12T06:01:55.200576,15.61513854,.00327671,50.1844,189.1951,247.5338,112.2165,0,U,52794,999,22487,.39613819E-3,.35195E-3,0
CZ-2C R/B,2022-132E,2026-06-11T23:51:02.154816,15.70922899,.00167132,97.2900,169.7879,100.3150,259.9998,0,U,54039,999,20513,.4631054E-3,.58372E-3,0
GSLV R/B,2022-138AN,2026-06-12T04:07:41.266560,14.97234175,.00221168,87.3795,134.6684,160.8185,199.3884,0,U,54149,999,19806,.18804723E-3,.2215E-4,0
XRISM,2023-137A,2026-06-12T01:01:53.750208,15.12421568,.00079469,31.0028,32.9219,272.3134,87.6594,0,U,57800,999,15208,.2395727E-3,.4366E-4,0
ACS3,2024-077B,2026-06-11T12:49:49.247328,13.93897959,.0060015,97.1682,82.5854,68.1976,292.5561,0,U,59588,999,10725,.53553E-2,.7151E-4,0
CZ-8A R/B,2025-231K,2026-06-11T22:49:47.597376,14.30153411,.01164756,50.0047,61.5920,205.5764,153.9361,0,U,66004,999,3419,.41333084E-4,-.48E-6,0
SZ-21 MODULE,2025-246C,2026-06-12T05:02:55.917024,15.75973730,.00069631,41.4744,338.3135,319.0725,40.9596,0,U,66515,999,3295,.30205628E-3,.48331E-3,0
