H-2A R/B                
1 28932U 06002B   26163.30859510  .00007110  00000+0  34259-3 0  9995
2 28932  98.2553 318.6970 0049607 279.3537  80.2088 15.18001990108788
RESURS-DK 1             
1 29228U 06021A   26162.94537913  .00002187  00000+0  12897-3 0  9997
2 29228  69.9338 353.1217 0006700 295.8467  64.2008 15.13194127101780
CZ-4B R/B               
1 29507U 06046C   26163.11046558  .00003326  00000+0  16626-3 0  9994
2 29507  97.5459 207.7332 0031161 301.3105  58.5079 15.17747003 74362
CZ-2C R/B               
1 31114U 07010B   26163.26943068  .00000068  00000+0  50035-4 0  9994
2 31114  98.4093 271.8610 0059313  20.3891 339.9635 14.20275156993141
COSMO-SKYMED 1          
1 31598U 07023A   26163.32269661  .00002431  00000+0  21605-3 0  9997
2 31598  97.8846 355.1384 0001002  91.0792 269.0544 14.97077304 29069
COSMOS 2428             
1 31792U 07029A   26163.25876709 -.00000140  00000+0 -49180-4 0  9994
2 31792  70.9372   4.8260 0007221 144.5158 215.6445 14.12929042977455
SL-16 R/B               
1 31793U 07029B   26163.25313750  .00000274  00000+0  16650-3 0  9998
2 31793  70.9765 333.6006 0002230 259.9222 273.0099 14.14852584978745
KORONAS-FOTON           
1 33504U 09003A   26163.28782364  .00011675  00000+0  24109-3 0  9993
2 33504  82.4286 177.3699 0011145 163.6265 196.5346 15.45625075960346
CZ-2C R/B               
1 37731U 11030B   26163.32551109  .00001213  00000+0  15802-3 0  9995
2 37731  97.8654 118.7995 0053408  43.5347  84.1438 14.81460251804101
H-2A R/B                
1 38341U 12025E   26163.20644590  .00003319  00000+0  29878-3 0  9999
2 38341  98.4818 137.9414 0043984   5.5407 354.6289 14.95690717762345
SHIJIAN-16 (SJ-16)      
1 39358U 13057A   26163.27936550  .00000791  00000+0  79578-4 0  9995
2 39358  74.9737   5.9795 0016896 242.1795 117.7681 14.92598675685615
SL-4 R/B                
1 39679U 14021B   26162.42517519  .00010157  00000+0  21183-3 0  9994
2 39679  51.6055 238.9984 0091459  85.0382 276.1037 15.41833581670722
ALOS-2                  
1 39766U 14029A   26163.26960718  .00000644  00000+0  93056-4 0  9994
2 39766  97.9212 260.5034 0001625  91.0171 269.1227 14.79471669650853
YAOGAN-29               
1 41038U 15069A   26163.25263557  .00000771  00000+0  10129-3 0  9990
2 41038  98.0035 191.8778 0002832  63.2702 296.8801 14.83083103569891
ASTRO-H (HITOMI)        
1 41337U 16012A   26163.14428039  .00002184  00000+0  12362-3 0  9998
2 41337  30.9978 106.7554 0009713 203.5249 156.4946 15.10488707566529
HXMT (HUIYAN)           
1 42758U 17034A   26163.26669675  .00004248  00000+0  21172-3 0  9999
2 42758  43.0133 210.4397 0030222 114.8323 245.5673 15.18448317496912
SAOCOM 1A               
1 43641U 18076A   26163.27525287  .00000471  00000+0  65688-4 0  9994
2 43641  97.8887 350.0955 0001576  79.6756 280.4635 14.82144333415374
H-2A R/B                
1 43682U 18084L   26163.20628130  .00021401  00000+0  45137-3 0  9994
2 43682  98.8594  41.0087 0023957  56.9693 303.3848 15.44966144420359
SAOCOM 1B               
1 46265U 20059A   26163.23899696  .00000028  00000+0  10135-4 0  9992
2 46265  97.8891 349.1547 0001499  81.6949 278.4435 14.82166322312756
CSS (TIANHE)            
1 48274U 21035A   26162.98578186  .00013571  00000+0  16313-3 0  9998
2 48274  41.4694 353.6513 0008142  34.9117 325.2255 15.60574522292353
CZ-2C R/B               
1 52794U 22058K   26163.25133334  .00035195  00000+0  39614-3 0  9994
2 52794  50.1844 189.1951 0032767 247.5338 112.2165 15.61513854224872
CZ-2C R/B               
1 54039U 22132E   26162.99377494  .00058372  00000+0  46311-3 0  9992
2 54039  97.2900 169.7879 0016713 100.3150 259.9998 15.70922899205139
GSLV R/B                
1 54149U 22138AN  26163.17200540  .00002215  00000+0  18805-3 0  9990
2 54149  87.3795 134.6684 0022116 160.8185 199.3884 14.97234175198066
XRISM                   
1 57800U 23137A   26163.04298322  .00004366  00000+0  23957-3 0  9991
2 57800  31.0028  32.9219 0007946 272.3134  87.6594 15.12421568152080
ACS3                    
1 59588U 24077B   26162.53459777  .00007151  00000+0  53553-2 0  9995
2 59588  97.1682  82.5854 0060015  68.1976 292.5561 13.93897959107259
CZ-8A R/B               
1 66004U 25231K   26162.95124534 -.00000048  00000+0  41333-4 0  9999
2 66004  50.0047  61.5920 0116475 205.5764 153.9361 14.30153411 34198
SZ-21 MODULE            
1 66515U 25246C   26163.21036941  .00048331  00000+0  30206-3 0  9998
2 66515  41.4744 338.3135 0006963 319.0725  40.9596 15.75973730 32955
